STARLINK-34195          
1 64142U 25111V   25209.20254150  .00024301  00000+0  88955-3 0  9991
2 64142  42.9996 265.4266 0001220 261.1840  98.8873 15.27585810 11137
STARLINK-34133          
1 64143U 25111W   25208.87173329  .00011562  00000+0  42895-3 0  9990
2 64143  42.9967 267.2424 0000759 274.1410  85.9355 15.27583277 11086
STARLINK-34181          
1 64144U 25111X   25209.22053210  .00009123  00000+0  34086-3 0  9990
2 64144  43.0015 265.5643 0002167 294.9354  65.1273 15.27559540 11130
STARLINK-34186          
1 64145U 25111Y   25209.16412832  .00032061  00000+0  11698-2 0  9993
2 64145  42.9950 265.9967 0000423 217.6574 142.4248 15.27572528 11120
STARLINK-34314          
1 64146U 25112A   25209.25002315 -.02712268  00000+0 -10479+0 0  9997
2 64146  97.6030 260.1680 0002025  98.4973  74.7399 15.30046172 10694
STARLINK-33926          
1 64147U 25112B   25209.25002315 -.02724222  00000+0 -11611+0 0  9990
2 64147  97.6040 260.2393 0001700  33.7111 294.3709 15.26874435 10683
STARLINK-34213          
1 64148U 25112C   25209.25002315 -.02727647  00000+0 -12430+0 0  9995
2 64148  97.6040 260.1925 0001731 102.3891 113.8965 15.24668628 10688
STARLINK-33924          
1 64149U 25112D   25208.91668981 -.01546795  00000+0 -86155-1 0  9994
2 64149  97.6032 259.8557 0001984  82.7868 133.1771 15.16935472 10642
STARLINK-34209          
1 64150U 25112E   25209.25002315 -.02795371  00000+0 -91779-1 0  9992
2 64150  97.6016 260.1921 0002755  95.9249 146.9838 15.35310301 10748
STARLINK-34338          
1 64151U 25112F   25209.25002315 -.02678781  00000+0 -92017-1 0  9994
2 64151  97.6021 260.2321 0001110  69.5220 258.0584 15.33749430 10672
STARLINK-34348          
1 64152U 25112G   25209.25002315 -.02721894  00000+0 -12876+0 0  9992
2 64152  97.6036 260.2442 0001558  32.6839 303.7920 15.23414087 10685
STARLINK-34345          
1 64153U 25112H   25209.25002315 -.03300790  00000+0 -17397+0 0  9995
2 64153  97.6032 260.2590 0001718  89.0991 290.6498 15.19885013 10689
STARLINK-33945          
1 64154U 25112J   25209.14073083  .00033444  00000+0  84443-3 0  9998
2 64154  97.6010 260.2405 0001222 149.7510 210.3806 15.39758908 10655
STARLINK-34346          
1 64155U 25112K   25209.25002315 -.03238499  00000+0 -17122+0 0  9999
2 64155  97.6047 260.3232 0001681  55.1586 101.2348 15.19694504 10688
STARLINK-34277          
1 64156U 25112L   25208.91668981  .00013823  00000+0  94057-3 0  9992
2 64156  97.6024 259.9260 0001772  63.5086 297.5034 15.06426735 10639
STARLINK-34343          
1 64157U 25112M   25209.25002315 -.00051112  00000+0 -34846-2 0  9998
2 64157  97.6033 260.2933 0001609  82.6120  15.7639 15.06482225 10730
