[{"OBJECT_NAME":"STARLINK-34195","OBJECT_ID":"2025-111V","EPOCH":"2025-07-28T04:51:39.585600","MEAN_MOTION":15.2758581,"ECCENTRICITY":0.000122,"INCLINATION":42.9996,"RA_OF_ASC_NODE":265.4266,"ARG_OF_PERICENTER":261.184,"MEAN_ANOMALY":98.8873,"EPHEMERIS_TYPE":0,"CLASSIFICATION_TYPE":"U","NORAD_CAT_ID":64142,"ELEMENT_SET_NO":999,"REV_AT_EPOCH":1113,"BSTAR":0.00088955,"MEAN_MOTION_DOT":0.00024301,"MEAN_MOTION_DDOT":0},{"OBJECT_NAME":"STARLINK-34133","OBJECT_ID":"2025-111W","EPOCH":"2025-07-27T20:55:17.756256","MEAN_MOTION":15.27583277,"ECCENTRICITY":7.59e-5,"INCLINATION":42.9967,"RA_OF_ASC_NODE":267.2424,"ARG_OF_PERICENTER":274.141,"MEAN_ANOMALY":85.9355,"EPHEMERIS_TYPE":0,"CLASSIFICATION_TYPE":"U","NORAD_CAT_ID":64143,"ELEMENT_SET_NO":999,"REV_AT_EPOCH":1108,"BSTAR":0.00042895,"MEAN_MOTION_DOT":0.00011562,"MEAN_MOTION_DDOT":0},{"OBJECT_NAME":"STARLINK-34181","OBJECT_ID":"2025-111X","EPOCH":"2025-07-28T05:17:33.973440","MEAN_MOTION":15.2755954,"ECCENTRICITY":0.0002167,"INCLINATION":43.0015,"RA_OF_ASC_NODE":265.5643,"ARG_OF_PERICENTER":294.9354,"MEAN_ANOMALY":65.1273,"EPHEMERIS_TYPE":0,"CLASSIFICATION_TYPE":"U","NORAD_CAT_ID":64144,"ELEMENT_SET_NO":999,"REV_AT_EPOCH":1113,"BSTAR":0.00034086,"MEAN_MOTION_DOT":9.123e-5,"MEAN_MOTION_DDOT":0},{"OBJECT_NAME":"STARLINK-34186","OBJECT_ID":"2025-111Y","EPOCH":"2025-07-28T03:56:20.686848","MEAN_MOTION":15.27572528,"ECCENTRICITY":4.23e-5,"INCLINATION":42.995,"RA_OF_ASC_NODE":265.9967,"ARG_OF_PERICENTER":217.6574,"MEAN_ANOMALY":142.4248,"EPHEMERIS_TYPE":0,"CLASSIFICATION_TYPE":"U","NORAD_CAT_ID":64145,"ELEMENT_SET_NO":999,"REV_AT_EPOCH":1112,"BSTAR":0.0011698,"MEAN_MOTION_DOT":0.00032061,"MEAN_MOTION_DDOT":0},{"OBJECT_NAME":"STARLINK-34314","OBJECT_ID":"2025-112A","EPOCH":"2025-07-28T06:00:02.000160","MEAN_MOTION":15.30046172,"ECCENTRICITY":0.0002025,"INCLINATION":97.603,"RA_OF_ASC_NODE":260.168,"ARG_OF_PERICENTER":98.4973,"MEAN_ANOMALY":74.7399,"EPHEMERIS_TYPE":0,"CLASSIFICATION_TYPE":"U","NORAD_CAT_ID":64146,"ELEMENT_SET_NO":999,"REV_AT_EPOCH":1069,"BSTAR":-0.10479,"MEAN_MOTION_DOT":-0.02712268,"MEAN_MOTION_DDOT":0},{"OBJECT_NAME":"STARLINK-33926","OBJECT_ID":"2025-112B","EPOCH":"2025-07-28T06:00:02.000160","MEAN_MOTION":15.26874435,"ECCENTRICITY":0.00017,"INCLINATION":97.604,"RA_OF_ASC_NODE":260.2393,"ARG_OF_PERICENTER":33.7111,"MEAN_ANOMALY":294.3709,"EPHEMERIS_TYPE":0,"CLASSIFICATION_TYPE":"U","NORAD_CAT_ID":64147,"ELEMENT_SET_NO":999,"REV_AT_EPOCH":1068,"BSTAR":-0.11611,"MEAN_MOTION_DOT":-0.02724222,"MEAN_MOTION_DDOT":0},{"OBJECT_NAME":"STARLINK-34213","OBJECT_ID":"2025-112C","EPOCH":"2025-07-28T06:00:02.000160","MEAN_MOTION":15.24668628,"ECCENTRICITY":0.0001731,"INCLINATION":97.604,"RA_OF_ASC_NODE":260.1925,"ARG_OF_PERICENTER":102.3891,"MEAN_ANOMALY":113.8965,"EPHEMERIS_TYPE":0,"CLASSIFICATION_TYPE":"U","NORAD_CAT_ID":64148,"ELEMENT_SET_NO":999,"REV_AT_EPOCH":1068,"BSTAR":-0.1243,"MEAN_MOTION_DOT":-0.02727647,"MEAN_MOTION_DDOT":0},{"OBJECT_NAME":"STARLINK-33924","OBJECT_ID":"2025-112D","EPOCH":"2025-07-27T22:00:01.999584","MEAN_MOTION":15.16935472,"ECCENTRICITY":0.0001984,"INCLINATION":97.6032,"RA_OF_ASC_NODE":259.8557,"ARG_OF_PERICENTER":82.7868,"MEAN_ANOMALY":133.1771,"EPHEMERIS_TYPE":0,"CLASSIFICATION_TYPE":"U","NORAD_CAT_ID":64149,"ELEMENT_SET_NO":999,"REV_AT_EPOCH":1064,"BSTAR":-0.086155,"MEAN_MOTION_DOT":-0.01546795,"MEAN_MOTION_DDOT":0},{"OBJECT_NAME":"STARLINK-34209","OBJECT_ID":"2025-112E","EPOCH":"2025-07-28T06:00:02.000160","MEAN_MOTION":15.35310301,"ECCENTRICITY":0.0002755,"INCLINATION":97.6016,"RA_OF_ASC_NODE":260.1921,"ARG_OF_PERICENTER":95.9249,"MEAN_ANOMALY":146.9838,"EPHEMERIS_TYPE":0,"CLASSIFICATION_TYPE":"U","NORAD_CAT_ID":64150,"ELEMENT_SET_NO":999,"REV_AT_EPOCH":1074,"BSTAR":-0.091779,"MEAN_MOTION_DOT":-0.02795371,"MEAN_MOTION_DDOT":0},{"OBJECT_NAME":"STARLINK-34338","OBJECT_ID":"2025-112F","EPOCH":"2025-07-28T06:00:02.000160","MEAN_MOTION":15.3374943,"ECCENTRICITY":0.000111,"INCLINATION":97.6021,"RA_OF_ASC_NODE":260.2321,"ARG_OF_PERICENTER":69.522,"MEAN_ANOMALY":258.0584,"EPHEMERIS_TYPE":0,"CLASSIFICATION_TYPE":"U","NORAD_CAT_ID":64151,"ELEMENT_SET_NO":999,"REV_AT_EPOCH":1067,"BSTAR":-0.092017,"MEAN_MOTION_DOT":-0.02678781,"MEAN_MOTION_DDOT":0},{"OBJECT_NAME":"STARLINK-34348","OBJECT_ID":"2025-112G","EPOCH":"2025-07-28T06:00:02.000160","MEAN_MOTION":15.23414087,"ECCENTRICITY":0.0001558,"INCLINATION":97.6036,"RA_OF_ASC_NODE":260.2442,"ARG_OF_PERICENTER":32.6839,"MEAN_ANOMALY":303.792,"EPHEMERIS_TYPE":0,"CLASSIFICATION_TYPE":"U","NORAD_CAT_ID":64152,"ELEMENT_SET_NO":999,"REV_AT_EPOCH":1068,"BSTAR":-0.12876,"MEAN_MOTION_DOT":-0.02721894,"MEAN_MOTION_DDOT":0},{"OBJECT_NAME":"STARLINK-34345","OBJECT_ID":"2025-112H","EPOCH":"2025-07-28T06:00:02.000160","MEAN_MOTION":15.19885013,"ECCENTRICITY":0.0001718,"INCLINATION":97.6032,"RA_OF_ASC_NODE":260.259,"ARG_OF_PERICENTER":89.0991,"MEAN_ANOMALY":290.6498,"EPHEMERIS_TYPE":0,"CLASSIFICATION_TYPE":"U","NORAD_CAT_ID":64153,"ELEMENT_SET_NO":999,"REV_AT_EPOCH":1068,"BSTAR":-0.17397,"MEAN_MOTION_DOT":-0.0330079,"MEAN_MOTION_DDOT":0},{"OBJECT_NAME":"STARLINK-33945","OBJECT_ID":"2025-112J","EPOCH":"2025-07-28T03:22:39.143712","MEAN_MOTION":15.39758908,"ECCENTRICITY":0.0001222,"INCLINATION":97.601,"RA_OF_ASC_NODE":260.2405,"ARG_OF_PERICENTER":149.751,"MEAN_ANOMALY":210.3806,"EPHEMERIS_TYPE":0,"CLASSIFICATION_TYPE":"U","NORAD_CAT_ID":64154,"ELEMENT_SET_NO":999,"REV_AT_EPOCH":1065,"BSTAR":0.00084443,"MEAN_MOTION_DOT":0.00033444,"MEAN_MOTION_DDOT":0},{"OBJECT_NAME":"STARLINK-34346","OBJECT_ID":"2025-112K","EPOCH":"2025-07-28T06:00:02.000160","MEAN_MOTION":15.19694504,"ECCENTRICITY":0.0001681,"INCLINATION":97.6047,"RA_OF_ASC_NODE":260.3232,"ARG_OF_PERICENTER":55.1586,"MEAN_ANOMALY":101.2348,"EPHEMERIS_TYPE":0,"CLASSIFICATION_TYPE":"U","NORAD_CAT_ID":64155,"ELEMENT_SET_NO":999,"REV_AT_EPOCH":1068,"BSTAR":-0.17122,"MEAN_MOTION_DOT":-0.03238499,"MEAN_MOTION_DDOT":0},{"OBJECT_NAME":"STARLINK-34277","OBJECT_ID":"2025-112L","EPOCH":"2025-07-27T22:00:01.999584","MEAN_MOTION":15.06426735,"ECCENTRICITY":0.0001772,"INCLINATION":97.6024,"RA_OF_ASC_NODE":259.926,"ARG_OF_PERICENTER":63.5086,"MEAN_ANOMALY":297.5034,"EPHEMERIS_TYPE":0,"CLASSIFICATION_TYPE":"U","NORAD_CAT_ID":64156,"ELEMENT_SET_NO":999,"REV_AT_EPOCH":1063,"BSTAR":0.00094057,"MEAN_MOTION_DOT":0.00013823,"MEAN_MOTION_DDOT":0},{"OBJECT_NAME":"STARLINK-34343","OBJECT_ID":"2025-112M","EPOCH":"2025-07-28T06:00:02.000160","MEAN_MOTION":15.06482225,"ECCENTRICITY":0.0001609,"INCLINATION":97.6033,"RA_OF_ASC_NODE":260.2933,"ARG_OF_PERICENTER":82.612,"MEAN_ANOMALY":15.7639,"EPHEMERIS_TYPE":0,"CLASSIFICATION_TYPE":"U","NORAD_CAT_ID":64157,"ELEMENT_SET_NO":999,"REV_AT_EPOCH":1073,"BSTAR":-0.0034846,"MEAN_MOTION_DOT":-0.00051112,"MEAN_MOTION_DDOT":0}]
